{
  "norad_id": 48050,
  "name": "ONEWEB-0113",
  "history": [
    {
      "epoch": "2026-03-28T18:02:41.905824Z",
      "apogee_km": 1209.1579808922443,
      "perigee_km": 1206.667025677345,
      "latitude_deg": 6.542341360004453e-05,
      "longitude_deg": -120.68492182636584,
      "height_km": 1210.8532874621274,
      "semi_major_axis_km": 7586.049503284794,
      "eccentricity": 0.00016418,
      "inclination_deg": 87.902,
      "raan_deg": 336.1575,
      "arg_perigee_deg": 92.3232,
      "mean_anomaly_deg": 267.8086,
      "mean_motion_rev_day": 13.13951253
    },
    {
      "epoch": "2026-03-29T05:00:37.915488Z",
      "apogee_km": 1209.1607936209684,
      "perigee_km": 1206.6634662473944,
      "latitude_deg": 2.0364482120561014e-05,
      "longitude_deg": 74.29056346592411,
      "height_km": 1210.858284577159,
      "semi_major_axis_km": 7586.049129934181,
      "eccentricity": 0.0001646,
      "inclination_deg": 87.9019,
      "raan_deg": 336.0667,
      "arg_perigee_deg": 92.5639,
      "mean_anomaly_deg": 267.5679,
      "mean_motion_rev_day": 13.1395135
    }
  ]
}